STARLINK-31849          
1 59734U 24090E   26068.32231498 -.00004557  00000+0 -15615-3 0  9990
2 59734  42.9996 178.6774 0000243 296.9087  63.1739 15.27592743103467
HAWK-11C                
1 62381U 24247E   26068.51221537  .00009223  00000+0  33290-3 0  9992
2 62381  45.0045 114.8762 0005900 329.7040  30.3502 15.28848020 67743
